{
 "type": "FeatureCollection",
 "features": [
  {
   "type": "Feature",
   "properties": {
    "id": "tky_tama",
    "name": "Tama & the Okutama Highlands",
    "owner": "",
    "gid0": "",
    "country": "",
    "typeId": "land"
   },
   "geometry": {
    "type": "Polygon",
    "coordinates": [
     [
      [
       139.35,
       35.6
      ],
      [
       139.62,
       35.6
      ],
      [
       139.62,
       35.8
      ],
      [
       139.35,
       35.8
      ],
      [
       139.35,
       35.6
      ]
     ]
    ]
   }
  },
  {
   "type": "Feature",
   "properties": {
    "id": "tky_ikebukuro",
    "name": "Ikebukuro",
    "owner": "The Genji Court",
    "gid0": "",
    "country": "",
    "typeId": "land"
   },
   "geometry": {
    "type": "Polygon",
    "coordinates": [
     [
      [
       139.62,
       35.72
      ],
      [
       139.7,
       35.72
      ],
      [
       139.7,
       35.8
      ],
      [
       139.62,
       35.8
      ],
      [
       139.62,
       35.72
      ]
     ]
    ]
   }
  },
  {
   "type": "Feature",
   "properties": {
    "id": "tky_ueno",
    "name": "Ueno & Asakusa",
    "owner": "The Genji Court",
    "gid0": "",
    "country": "",
    "typeId": "land"
   },
   "geometry": {
    "type": "Polygon",
    "coordinates": [
     [
      [
       139.7,
       35.72
      ],
      [
       139.84,
       35.72
      ],
      [
       139.84,
       35.8
      ],
      [
       139.7,
       35.8
      ],
      [
       139.7,
       35.72
      ]
     ]
    ]
   }
  },
  {
   "type": "Feature",
   "properties": {
    "id": "tky_shinjuku",
    "name": "Shinjuku",
    "owner": "The Shinjuku Banu Haqim",
    "gid0": "",
    "country": "",
    "typeId": "land"
   },
   "geometry": {
    "type": "Polygon",
    "coordinates": [
     [
      [
       139.62,
       35.66
      ],
      [
       139.7,
       35.66
      ],
      [
       139.7,
       35.72
      ],
      [
       139.62,
       35.72
      ],
      [
       139.62,
       35.66
      ]
     ]
    ]
   }
  },
  {
   "type": "Feature",
   "properties": {
    "id": "tky_kasumigaseki",
    "name": "Kasumigaseki & Nagatach\u014d",
    "owner": "The Genji Court",
    "gid0": "",
    "country": "",
    "typeId": "land"
   },
   "geometry": {
    "type": "Polygon",
    "coordinates": [
     [
      [
       139.7,
       35.66
      ],
      [
       139.76,
       35.66
      ],
      [
       139.76,
       35.72
      ],
      [
       139.7,
       35.72
      ],
      [
       139.7,
       35.66
      ]
     ]
    ]
   }
  },
  {
   "type": "Feature",
   "properties": {
    "id": "tky_marunouchi",
    "name": "Marunouchi & Akihabara",
    "owner": "The Genji Court",
    "gid0": "",
    "country": "",
    "typeId": "land"
   },
   "geometry": {
    "type": "Polygon",
    "coordinates": [
     [
      [
       139.76,
       35.66
      ],
      [
       139.84,
       35.66
      ],
      [
       139.84,
       35.72
      ],
      [
       139.76,
       35.72
      ],
      [
       139.76,
       35.66
      ]
     ]
    ]
   }
  },
  {
   "type": "Feature",
   "properties": {
    "id": "tky_shibuya",
    "name": "Shibuya",
    "owner": "The Genji Court",
    "gid0": "",
    "country": "",
    "typeId": "land",
    "claimants": [
     "The Concordat Community"
    ]
   },
   "geometry": {
    "type": "Polygon",
    "coordinates": [
     [
      [
       139.62,
       35.6
      ],
      [
       139.7,
       35.6
      ],
      [
       139.7,
       35.66
      ],
      [
       139.62,
       35.66
      ],
      [
       139.62,
       35.6
      ]
     ]
    ]
   }
  },
  {
   "type": "Feature",
   "properties": {
    "id": "tky_roppongi",
    "name": "Roppongi & Azabu",
    "owner": "The Concordat Community",
    "gid0": "",
    "country": "",
    "typeId": "land"
   },
   "geometry": {
    "type": "Polygon",
    "coordinates": [
     [
      [
       139.7,
       35.6
      ],
      [
       139.76,
       35.6
      ],
      [
       139.76,
       35.66
      ],
      [
       139.7,
       35.66
      ],
      [
       139.7,
       35.6
      ]
     ]
    ]
   }
  },
  {
   "type": "Feature",
   "properties": {
    "id": "tky_ginza",
    "name": "Ginza",
    "owner": "The Genji Court",
    "gid0": "",
    "country": "",
    "typeId": "land"
   },
   "geometry": {
    "type": "Polygon",
    "coordinates": [
     [
      [
       139.76,
       35.6
      ],
      [
       139.84,
       35.6
      ],
      [
       139.84,
       35.66
      ],
      [
       139.76,
       35.66
      ],
      [
       139.76,
       35.6
      ]
     ]
    ]
   }
  },
  {
   "type": "Feature",
   "properties": {
    "id": "tky_hiroo",
    "name": "Hiroo",
    "owner": "The Concordat Community",
    "gid0": "",
    "country": "",
    "typeId": "land"
   },
   "geometry": {
    "type": "Polygon",
    "coordinates": [
     [
      [
       139.7,
       35.54
      ],
      [
       139.76,
       35.54
      ],
      [
       139.76,
       35.6
      ],
      [
       139.7,
       35.6
      ],
      [
       139.7,
       35.54
      ]
     ]
    ]
   }
  },
  {
   "type": "Feature",
   "properties": {
    "id": "tky_shinagawa",
    "name": "Shinagawa & the Bay",
    "owner": "The Genji Court",
    "gid0": "",
    "country": "",
    "typeId": "land"
   },
   "geometry": {
    "type": "Polygon",
    "coordinates": [
     [
      [
       139.76,
       35.54
      ],
      [
       139.84,
       35.54
      ],
      [
       139.84,
       35.6
      ],
      [
       139.76,
       35.6
      ],
      [
       139.76,
       35.54
      ]
     ]
    ]
   }
  },
  {
   "type": "Feature",
   "properties": {
    "id": "tky_bay",
    "name": "Tokyo Bay & Odaiba",
    "owner": "",
    "gid0": "",
    "country": "",
    "typeId": "land"
   },
   "geometry": {
    "type": "Polygon",
    "coordinates": [
     [
      [
       139.84,
       35.5
      ],
      [
       139.95,
       35.5
      ],
      [
       139.95,
       35.66
      ],
      [
       139.84,
       35.66
      ],
      [
       139.84,
       35.5
      ]
     ]
    ]
   }
  },
  {
   "type": "Feature",
   "properties": {
    "id": "tky_kanagawa",
    "name": "The Kawasaki-Yokohama Corridor",
    "owner": "",
    "gid0": "",
    "country": "",
    "typeId": "land"
   },
   "geometry": {
    "type": "Polygon",
    "coordinates": [
     [
      [
       139.35,
       35.5
      ],
      [
       139.7,
       35.5
      ],
      [
       139.7,
       35.6
      ],
      [
       139.35,
       35.6
      ],
      [
       139.35,
       35.5
      ]
     ]
    ]
   }
  }
 ]
}