{
 "type": "FeatureCollection",
 "features": [
  {
   "type": "Feature",
   "properties": {
    "id": "ber_spandau",
    "name": "Spandau & the Western Waterfront",
    "owner": "",
    "gid0": "",
    "country": "",
    "typeId": "land"
   },
   "geometry": {
    "type": "Polygon",
    "coordinates": [
     [
      [
       13.08,
       52.46
      ],
      [
       13.28,
       52.46
      ],
      [
       13.28,
       52.6
      ],
      [
       13.08,
       52.6
      ],
      [
       13.08,
       52.46
      ]
     ]
    ]
   }
  },
  {
   "type": "Feature",
   "properties": {
    "id": "ber_charlottenburg",
    "name": "Charlottenburg & the Western Cities",
    "owner": "Charlottenburg Camarilla",
    "gid0": "",
    "country": "",
    "typeId": "land",
    "claimants": [
     "Berlin Anarchs"
    ]
   },
   "geometry": {
    "type": "Polygon",
    "coordinates": [
     [
      [
       13.28,
       52.505
      ],
      [
       13.36,
       52.505
      ],
      [
       13.36,
       52.545
      ],
      [
       13.28,
       52.545
      ],
      [
       13.28,
       52.505
      ]
     ]
    ]
   }
  },
  {
   "type": "Feature",
   "properties": {
    "id": "ber_reinickendorf",
    "name": "Reinickendorf & Tegel",
    "owner": "",
    "gid0": "",
    "country": "",
    "typeId": "land"
   },
   "geometry": {
    "type": "Polygon",
    "coordinates": [
     [
      [
       13.28,
       52.545
      ],
      [
       13.36,
       52.545
      ],
      [
       13.36,
       52.635
      ],
      [
       13.28,
       52.635
      ],
      [
       13.28,
       52.545
      ]
     ]
    ]
   }
  },
  {
   "type": "Feature",
   "properties": {
    "id": "ber_schoeneberg",
    "name": "Schöneberg & the Rote Insel",
    "owner": "",
    "gid0": "",
    "country": "",
    "typeId": "land"
   },
   "geometry": {
    "type": "Polygon",
    "coordinates": [
     [
      [
       13.28,
       52.46
      ],
      [
       13.38,
       52.46
      ],
      [
       13.38,
       52.505
      ],
      [
       13.28,
       52.505
      ],
      [
       13.28,
       52.46
      ]
     ]
    ]
   }
  },
  {
   "type": "Feature",
   "properties": {
    "id": "ber_steglitz",
    "name": "Steglitz-Zehlendorf & the Grunewald's Edge",
    "owner": "",
    "gid0": "",
    "country": "",
    "typeId": "land"
   },
   "geometry": {
    "type": "Polygon",
    "coordinates": [
     [
      [
       13.13,
       52.33
      ],
      [
       13.38,
       52.33
      ],
      [
       13.38,
       52.46
      ],
      [
       13.13,
       52.46
      ],
      [
       13.13,
       52.33
      ]
     ]
    ]
   }
  },
  {
   "type": "Feature",
   "properties": {
    "id": "ber_mitte",
    "name": "Mitte & the Council Safehouse",
    "owner": "Berlin Anarchs",
    "gid0": "",
    "country": "",
    "typeId": "land"
   },
   "geometry": {
    "type": "Polygon",
    "coordinates": [
     [
      [
       13.36,
       52.505
      ],
      [
       13.43,
       52.505
      ],
      [
       13.43,
       52.54
      ],
      [
       13.36,
       52.54
      ],
      [
       13.36,
       52.505
      ]
     ]
    ]
   }
  },
  {
   "type": "Feature",
   "properties": {
    "id": "ber_prenzlauer",
    "name": "Prenzlauer Berg & the Bötzowviertel",
    "owner": "",
    "gid0": "",
    "country": "",
    "typeId": "land"
   },
   "geometry": {
    "type": "Polygon",
    "coordinates": [
     [
      [
       13.36,
       52.54
      ],
      [
       13.435,
       52.54
      ],
      [
       13.435,
       52.57
      ],
      [
       13.46,
       52.57
      ],
      [
       13.46,
       52.63
      ],
      [
       13.36,
       52.63
      ],
      [
       13.36,
       52.54
      ]
     ]
    ]
   }
  },
  {
   "type": "Feature",
   "properties": {
    "id": "ber_friedrichshain",
    "name": "Friedrichshain & the Club Axis",
    "owner": "Berlin Anarchs",
    "gid0": "",
    "country": "",
    "typeId": "land"
   },
   "geometry": {
    "type": "Polygon",
    "coordinates": [
     [
      [
       13.43,
       52.5
      ],
      [
       13.5,
       52.5
      ],
      [
       13.5,
       52.53
      ],
      [
       13.43,
       52.53
      ],
      [
       13.43,
       52.5
      ]
     ]
    ]
   }
  },
  {
   "type": "Feature",
   "properties": {
    "id": "ber_kreuzberg",
    "name": "Kreuzberg & the Recognition",
    "owner": "Kreuzberg Banu Haqim",
    "gid0": "",
    "country": "",
    "typeId": "land"
   },
   "geometry": {
    "type": "Polygon",
    "coordinates": [
     [
      [
       13.38,
       52.48
      ],
      [
       13.442,
       52.48
      ],
      [
       13.442,
       52.5
      ],
      [
       13.38,
       52.5
      ],
      [
       13.38,
       52.48
      ]
     ]
    ]
   }
  },
  {
   "type": "Feature",
   "properties": {
    "id": "ber_neukoelln",
    "name": "Neukölln & the Weserkiez",
    "owner": "Kreuzberg Banu Haqim",
    "gid0": "",
    "country": "",
    "typeId": "land",
    "claimants": [
     "Berlin Anarchs"
    ]
   },
   "geometry": {
    "type": "Polygon",
    "coordinates": [
     [
      [
       13.42,
       52.45
      ],
      [
       13.47,
       52.45
      ],
      [
       13.47,
       52.5
      ],
      [
       13.442,
       52.5
      ],
      [
       13.442,
       52.48
      ],
      [
       13.42,
       52.48
      ],
      [
       13.42,
       52.45
      ]
     ]
    ]
   }
  },
  {
   "type": "Feature",
   "properties": {
    "id": "ber_tempelhof",
    "name": "Tempelhof & the Carna Library",
    "owner": "House Carna",
    "gid0": "",
    "country": "",
    "typeId": "land"
   },
   "geometry": {
    "type": "Polygon",
    "coordinates": [
     [
      [
       13.38,
       52.42
      ],
      [
       13.42,
       52.42
      ],
      [
       13.42,
       52.47
      ],
      [
       13.38,
       52.47
      ],
      [
       13.38,
       52.42
      ]
     ]
    ]
   }
  },
  {
   "type": "Feature",
   "properties": {
    "id": "ber_lichtenberg",
    "name": "Lichtenberg & the Eastern Districts",
    "owner": "Berlin Anarchs",
    "gid0": "",
    "country": "",
    "typeId": "land"
   },
   "geometry": {
    "type": "Polygon",
    "coordinates": [
     [
      [
       13.5,
       52.51
      ],
      [
       13.62,
       52.51
      ],
      [
       13.62,
       52.585
      ],
      [
       13.5,
       52.585
      ],
      [
       13.5,
       52.51
      ]
     ]
    ]
   }
  },
  {
   "type": "Feature",
   "properties": {
    "id": "ber_koepenick",
    "name": "Köpenick, Treptow & the Müggelsee",
    "owner": "",
    "gid0": "",
    "country": "",
    "typeId": "land"
   },
   "geometry": {
    "type": "Polygon",
    "coordinates": [
     [
      [
       13.47,
       52.33
      ],
      [
       13.65,
       52.33
      ],
      [
       13.65,
       52.5
      ],
      [
       13.47,
       52.5
      ],
      [
       13.47,
       52.33
      ]
     ]
    ]
   }
  }
 ]
}