{
 "type": "FeatureCollection",
 "features": [
  {
   "type": "Feature",
   "properties": {
    "city": "The West End Chantry",
    "tier": 4,
    "population": 1000000,
    "capital": "primary"
   },
   "geometry": {
    "type": "Point",
    "coordinates": [
     153.0125,
     -27.507
    ]
   }
  },
  {
   "type": "Feature",
   "properties": {
    "city": "Brisbane City Hall",
    "tier": 4,
    "population": 980000
   },
   "geometry": {
    "type": "Point",
    "coordinates": [
     153.02,
     -27.47
    ]
   }
  },
  {
   "type": "Feature",
   "properties": {
    "city": "The Empire Hotel",
    "tier": 4,
    "population": 950000
   },
   "geometry": {
    "type": "Point",
    "coordinates": [
     153.042,
     -27.458
    ]
   }
  },
  {
   "type": "Feature",
   "properties": {
    "city": "Central Station",
    "tier": 3,
    "population": 900000
   },
   "geometry": {
    "type": "Point",
    "coordinates": [
     153.0246,
     -27.4672
    ]
   }
  },
  {
   "type": "Feature",
   "properties": {
    "city": "Queensland Art Gallery",
    "tier": 3,
    "population": 880000
   },
   "geometry": {
    "type": "Point",
    "coordinates": [
     153.025,
     -27.505
    ]
   }
  },
  {
   "type": "Feature",
   "properties": {
    "city": "Brisbane Powerhouse",
    "tier": 3,
    "population": 840000
   },
   "geometry": {
    "type": "Point",
    "coordinates": [
     153.046,
     -27.478
    ]
   }
  },
  {
   "type": "Feature",
   "properties": {
    "city": "Westfield Chermside",
    "tier": 2,
    "population": 560000
   },
   "geometry": {
    "type": "Point",
    "coordinates": [
     153.028,
     -27.385
    ]
   }
  },
  {
   "type": "Feature",
   "properties": {
    "city": "Indooroopilly Shopping Centre",
    "tier": 2,
    "population": 540000
   },
   "geometry": {
    "type": "Point",
    "coordinates": [
     152.97,
     -27.498
    ]
   }
  },
  {
   "type": "Feature",
   "properties": {
    "city": "Brisbane Botanic Gardens, Mount Coot-tha",
    "tier": 2,
    "population": 460000
   },
   "geometry": {
    "type": "Point",
    "coordinates": [
     152.92,
     -27.44
    ]
   }
  },
  {
   "type": "Feature",
   "properties": {
    "city": "Wynnum",
    "tier": 2,
    "population": 430000
   },
   "geometry": {
    "type": "Point",
    "coordinates": [
     153.168,
     -27.43
    ]
   }
  },
  {
   "type": "Feature",
   "properties": {
    "city": "Logan Central",
    "tier": 2,
    "population": 520000
   },
   "geometry": {
    "type": "Point",
    "coordinates": [
     153.12,
     -27.672
    ]
   }
  },
  {
   "type": "Feature",
   "properties": {
    "city": "Ipswich",
    "tier": 2,
    "population": 500000
   },
   "geometry": {
    "type": "Point",
    "coordinates": [
     152.76,
     -27.61
    ]
   }
  },
  {
   "type": "Feature",
   "properties": {
    "city": "Beenleigh",
    "tier": 1,
    "population": 220000
   },
   "geometry": {
    "type": "Point",
    "coordinates": [
     153.2,
     -27.68
    ]
   }
  },
  {
   "type": "Feature",
   "properties": {
    "city": "Cape Moreton Lighthouse",
    "tier": 1,
    "population": 150000
   },
   "geometry": {
    "type": "Point",
    "coordinates": [
     153.465,
     -27.03
    ]
   }
  }
 ]
}